$$SOE
2460728.500000000, A.D. 2025-Feb-22 00:00:00.0000, -3.664389178377982E+09, 4.081910816350358E+09, 1.251919410847259E+07,
2460735.500000000, A.D. 2025-Mar-01 00:00:00.0000, -3.666476106698011E+09, 4.079716275589725E+09, 1.126810413240886E+07,
2460742.500000000, A.D. 2025-Mar-08 00:00:00.0000, -3.668561958174776E+09, 4.077520444180459E+09, 1.001701098850131E+07,
2460749.500000000, A.D. 2025-Mar-15 00:00:00.0000, -3.670646727626534E+09, 4.075323324604237E+09, 8.765914728511572E+06,
2460756.500000000, A.D. 2025-Mar-22 00:00:00.0000, -3.672730411042535E+09, 4.073124921486016E+09, 7.514815652784348E+06,
2460763.500000000, A.D. 2025-Mar-29 00:00:00.0000, -3.674813006444097E+09, 4.070925239761908E+09, 6.263714245384693E+06,
2460770.500000000, A.D. 2025-Apr-05 00:00:00.0000, -3.676894513051101E+09, 4.068724283730761E+09, 5.012611026808977E+06,
2460777.500000000, A.D. 2025-Apr-12 00:00:00.0000, -3.678974930679865E+09, 4.066522057093666E+09, 3.761506509130955E+06,
2460784.500000000, A.D. 2025-Apr-19 00:00:00.0000, -3.681054259559597E+09, 4.064318563100328E+09, 2.510401198433161E+06,
2460791.500000000, A.D. 2025-Apr-26 00:00:00.0000, -3.683132500295756E+09, 4.062113804599572E+09, 1.259295602756739E+06,
2460798.500000000, A.D. 2025-May-03 00:00:00.0000, -3.685209653866662E+09, 4.059907784013586E+09, 8.190236479043961E+03,
2460805.500000000, A.D. 2025-May-10 00:00:00.0000, -3.687285721624740E+09, 4.057700503244885E+09, -1.242914380964041E+06,
2460812.500000000, A.D. 2025-May-17 00:00:00.0000, -3.689360705265697E+09, 4.055491963475303E+09, -2.494017738879442E+06,
2460819.500000000, A.D. 2025-May-24 00:00:00.0000, -3.691434606591684E+09, 4.053282164802812E+09, -3.745119382125378E+06,
2460826.500000000, A.D. 2025-May-31 00:00:00.0000, -3.693507426650685E+09, 4.051071106027438E+09, -4.996219003894806E+06,
2460833.500000000, A.D. 2025-Jun-07 00:00:00.0000, -3.695579164653071E+09, 4.048858785791224E+09, -6.247316449249744E+06,
2460840.500000000, A.D. 2025-Jun-14 00:00:00.0000, -3.697649819029865E+09, 4.046645204405659E+09, -7.498411467032909E+06,
2460847.500000000, A.D. 2025-Jun-21 00:00:00.0000, -3.699719389415963E+09, 4.044430363095338E+09, -8.749503589068413E+06,
2460854.500000000, A.D. 2025-Jun-28 00:00:00.0000, -3.701787876430100E+09, 4.042214262422749E+09, -1.000059227933192E+07,
2460861.500000000, A.D. 2025-Jul-05 00:00:00.0000, -3.703855280768301E+09, 4.039996902050779E+09, -1.125167703770113E+07,
2460868.500000000, A.D. 2025-Jul-12 00:00:00.0000, -3.705921602801798E+09, 4.037778281037796E+09, -1.250275741479301E+07,
2460875.500000000, A.D. 2025-Jul-19 00:00:00.0000, -3.707986842489859E+09, 4.035558398090329E+09, -1.375383300221467E+07,
2460882.500000000, A.D. 2025-Jul-26 00:00:00.0000, -3.710050999397578E+09, 4.033337251716992E+09, -1.500490342201495E+07,
2460889.500000000, A.D. 2025-Aug-02 00:00:00.0000, -3.712114072753268E+09, 4.031114840305395E+09, -1.625596831945276E+07,
2460896.500000000, A.D. 2025-Aug-09 00:00:00.0000, -3.714176061522011E+09, 4.028891162107697E+09, -1.750702736229253E+07,
2460903.500000000, A.D. 2025-Aug-16 00:00:00.0000, -3.716236964418437E+09, 4.026666215071794E+09, -1.875808025866318E+07,
2460910.500000000, A.D. 2025-Aug-23 00:00:00.0000, -3.718296779566109E+09, 4.024439996534945E+09, -2.000912681877661E+07,
2460917.500000000, A.D. 2025-Aug-30 00:00:00.0000, -3.720355503474562E+09, 4.022212503494085E+09, -2.126016703208685E+07,
2460924.500000000, A.D. 2025-Sep-06 00:00:00.0000, -3.722413130752142E+09, 4.019983734453295E+09, -2.251120094781518E+07,
2460931.500000000, A.D. 2025-Sep-13 00:00:00.0000, -3.724469656225384E+09, 4.017753690365727E+09, -2.376222840826654E+07,
2460938.500000000, A.D. 2025-Sep-20 00:00:00.0000, -3.726525076191711E+09, 4.015522373025692E+09, -2.501324906928301E+07,
2460945.500000000, A.D. 2025-Sep-27 00:00:00.0000, -3.728579387746900E+09, 4.013289784022642E+09, -2.626426255042720E+07,
2460952.500000000, A.D. 2025-Oct-04 00:00:00.0000, -3.730632588203996E+09, 4.011055924796475E+09, -2.751526848568678E+07,
2460959.500000000, A.D. 2025-Oct-11 00:00:00.0000, -3.732684674977354E+09, 4.008820796851308E+09, -2.876626651737499E+07,
2460966.500000000, A.D. 2025-Oct-18 00:00:00.0000, -3.734735645648116E+09, 4.006584401853601E+09, -3.001725628164625E+07,
2460973.500000000, A.D. 2025-Oct-25 00:00:00.0000, -3.736785498071609E+09, 4.004346741625947E+09, -3.126823739754295E+07,
2460980.500000000, A.D. 2025-Nov-01 00:00:00.0000, -3.738834230487255E+09, 4.002107818052423E+09, -3.251920946204090E+07,
2460987.500000000, A.D. 2025-Nov-08 00:00:00.0000, -3.740881841596482E+09, 3.999867632864543E+09, -3.377017205697250E+07,
2460994.500000000, A.D. 2025-Nov-15 00:00:00.0000, -3.742928330460826E+09, 3.997626187249729E+09, -3.502112478637886E+07,
2461001.500000000, A.D. 2025-Nov-22 00:00:00.0000, -3.744973695817594E+09, 3.995383481502851E+09, -3.627206736345267E+07,
2461008.500000000, A.D. 2025-Nov-29 00:00:00.0000, -3.747017934966344E+09, 3.993139515856274E+09, -3.752299964047647E+07,
2461015.500000000, A.D. 2025-Dec-06 00:00:00.0000, -3.749061044503676E+09, 3.990894292352797E+09, -3.877392138418436E+07,
2461022.500000000, A.D. 2025-Dec-13 00:00:00.0000, -3.751103022472696E+09, 3.988647814391508E+09, -4.002483211192155E+07,
2461029.500000000, A.D. 2025-Dec-20 00:00:00.0000, -3.753143868434014E+09, 3.986400084970067E+09, -4.127573122549391E+07,
2461036.500000000, A.D. 2025-Dec-27 00:00:00.0000, -3.755183582532092E+09, 3.984151106215148E+09, -4.252661813252807E+07,
2461043.500000000, A.D. 2026-Jan-03 00:00:00.0000, -3.757222165016154E+09, 3.981900879586042E+09, -4.377749227181554E+07,
2461050.500000000, A.D. 2026-Jan-10 00:00:00.0000, -3.759259616105917E+09, 3.979649406073182E+09, -4.502835310817194E+07,
2461057.500000000, A.D. 2026-Jan-17 00:00:00.0000, -3.761295935969561E+09, 3.977396686300865E+09, -4.627920012554622E+07,
2461064.500000000, A.D. 2026-Jan-24 00:00:00.0000, -3.763331124736008E+09, 3.975142720557692E+09, -4.753003282358766E+07,
2461071.500000000, A.D. 2026-Jan-31 00:00:00.0000, -3.765365182518049E+09, 3.972887508748278E+09, -4.878085072032475E+07,
2461078.500000000, A.D. 2026-Feb-07 00:00:00.0000, -3.767398109384810E+09, 3.970631050209779E+09, -5.003165337116861E+07,
2461085.500000000, A.D. 2026-Feb-14 00:00:00.0000, -3.769429905030488E+09, 3.968373343378862E+09, -5.128244042859244E+07,
2461092.500000000, A.D. 2026-Feb-21 00:00:00.0000, -3.771460567751807E+09, 3.966114385886905E+09, -5.253321173077512E+07,
2461099.500000000, A.D. 2026-Feb-28 00:00:00.0000, -3.773490093819026E+09, 3.963854176237538E+09, -5.378396722535133E+07,
2461106.500000000, A.D. 2026-Mar-07 00:00:00.0000, -3.775518479299054E+09, 3.961592715116907E+09, -5.503470669873405E+07,
2461113.500000000, A.D. 2026-Mar-14 00:00:00.0000, -3.777545721554946E+09, 3.959330004004060E+09, -5.628542975615001E+07,
2461120.500000000, A.D. 2026-Mar-21 00:00:00.0000, -3.779571818638932E+09, 3.957066043979536E+09, -5.753613597897673E+07,
2461127.500000000, A.D. 2026-Mar-28 00:00:00.0000, -3.781596768588333E+09, 3.954800835760817E+09, -5.878682499089861E+07,
2461134.500000000, A.D. 2026-Apr-04 00:00:00.0000, -3.783620569228119E+09, 3.952534379999030E+09, -6.003749645625615E+07,
2461141.500000000, A.D. 2026-Apr-11 00:00:00.0000, -3.785643218206168E+09, 3.950266677476897E+09, -6.128815006496310E+07,
2461148.500000000, A.D. 2026-Apr-18 00:00:00.0000, -3.787664713101821E+09, 3.947997729201260E+09, -6.253878551892757E+07,
2461155.500000000, A.D. 2026-Apr-25 00:00:00.0000, -3.789685051561679E+09, 3.945727536404842E+09, -6.378940252279449E+07,
2461162.500000000, A.D. 2026-May-02 00:00:00.0000, -3.791704231431612E+09, 3.943456100427643E+09, -6.504000078403640E+07,
2461169.500000000, A.D. 2026-May-09 00:00:00.0000, -3.793722250759988E+09, 3.941183422411732E+09, -6.629058003908587E+07,
2461176.500000000, A.D. 2026-May-16 00:00:00.0000, -3.795739107293809E+09, 3.938909502947810E+09, -6.754114012872148E+07,
2461183.500000000, A.D. 2026-May-23 00:00:00.0000, -3.797754797415632E+09, 3.936634342695955E+09, -6.879168104385853E+07,
2461190.500000000, A.D. 2026-May-30 00:00:00.0000, -3.799769316599517E+09, 3.934357944300121E+09, -7.004220272497606E+07,
2461197.500000000, A.D. 2026-Jun-06 00:00:00.0000, -3.801782661703196E+09, 3.932080312322886E+09, -7.129270485367727E+07,
2461204.500000000, A.D. 2026-Jun-13 00:00:00.0000, -3.803794831430466E+09, 3.929801451399370E+09, -7.254318695648932E+07,
2461211.500000000, A.D. 2026-Jun-20 00:00:00.0000, -3.805805825464796E+09, 3.927521365536521E+09, -7.379364853603745E+07,
2461218.500000000, A.D. 2026-Jun-27 00:00:00.0000, -3.807815643972530E+09, 3.925240058217876E+09, -7.504408910180902E+07,
2461225.500000000, A.D. 2026-Jul-04 00:00:00.0000, -3.809824287475795E+09, 3.922957532539007E+09, -7.629450816413856E+07,
2461232.500000000, A.D. 2026-Jul-11 00:00:00.0000, -3.811831756841181E+09, 3.920673791241737E+09, -7.754490522573090E+07,
2461239.500000000, A.D. 2026-Jul-18 00:00:00.0000, -3.813838053291521E+09, 3.918388836672955E+09, -7.879527977740502E+07,
2461246.500000000, A.D. 2026-Jul-25 00:00:00.0000, -3.815843178416302E+09, 3.916102670670802E+09, -8.004563130029869E+07,
2461253.500000000, A.D. 2026-Aug-01 00:00:00.0000, -3.817847134132693E+09, 3.913815294330187E+09, -8.129595928307366E+07,
2461260.500000000, A.D. 2026-Aug-08 00:00:00.0000, -3.819849922382296E+09, 3.911526707611825E+09, -8.254626327690911E+07,
2461267.500000000, A.D. 2026-Aug-15 00:00:00.0000, -3.821851544148685E+09, 3.909236909245317E+09, -8.379654298964167E+07,
2461274.500000000, A.D. 2026-Aug-22 00:00:00.0000, -3.823851998556889E+09, 3.906945898147702E+09, -8.504679824948907E+07,
2461281.500000000, A.D. 2026-Aug-29 00:00:00.0000, -3.825851284344000E+09, 3.904653674984932E+09, -8.629702874063277E+07,
2461288.500000000, A.D. 2026-Sep-05 00:00:00.0000, -3.827849401567418E+09, 3.902360241008266E+09, -8.754723394072676E+07,
$$EOE